IRIDIUM 7               
1 24793U 97020B   25252.77340904  .00000335  00000+0  10854-3 0  9994
2 24793  86.3996 141.5038 0002000  93.9532 266.1893 14.35996320484039
IRIDIUM 5               
1 24795U 97020D   25252.86661847  .00005284  00000+0  42781-3 0  9990
2 24795  86.3877  44.6353 0106870 193.1813 166.6622 14.95058968498118
IRIDIUM 4               
1 24796U 97020E   25252.77347403  .00000340  00000+0  10824-3 0  9991
2 24796  86.3987 138.3270 0001988  87.3325 272.8100 14.36897138484612
IRIDIUM 914             
1 24836U 97030A   25252.74813503  .00000384  00000+0  11363-3 0  9990
2 24836  86.3982 146.6845 0001254  38.3688 321.7601 14.40939795619303
IRIDIUM 16              
1 24841U 97030F   25252.83504728  .00000357  00000+0  10990-3 0  9997
2 24841  86.4106 169.7498 0003760 116.6826 243.4757 14.38773134479177
IRIDIUM 911             
1 24842U 97030G   25252.85807132  .00000514  00000+0  13373-3 0  9998
2 24842  86.4530 168.4195 0014329 166.4295 193.7297 14.47730008487331
IRIDIUM 17              
1 24870U 97034B   25252.87425376  .00000438  00000+0  13872-3 0  9990
2 24870  86.4006 199.1527 0003907  90.9990 269.1655 14.37895618475750
IRIDIUM 920             
1 24871U 97034C   25252.83829975  .00000407  00000+0  11896-3 0  9990
2 24871  86.4046 178.2300 0012255 152.3217 207.8638 14.41602659478774
